{
  "type": "FeatureCollection",
  "features": [
    {
      "type": "Feature",
      "id": "11111111-1111-4111-8111-111111111301",
      "geometry": { "type": "Polygon", "coordinates": [[[-86.80, 36.10], [-86.80, 36.12], [-86.78, 36.12], [-86.78, 36.10], [-86.80, 36.10]]] },
      "properties": {
        "id": "11111111-1111-4111-8111-111111111301",
        "created_at": "2025-03-01T12:00:00Z",
        "updated_at": "2025-03-01T12:00:00Z",
        "source": { "app": "Legacy Notebook", "app_version": "0", "record_id": "sketch-1" },
        "visibility": "private",
        "name": "Sketched boundary",
        "category": "boundary",
        "notes": "Traced from a paper plat; winding order not normalized by the exporter."
      }
    }
  ]
}
