{
  "type": "FeatureCollection",
  "features": [
    {
      "type": "Feature",
      "id": "11111111-1111-4111-8111-111111111401",
      "geometry": { "type": "LineString", "coordinates": [[-86.79, 36.11], [-86.79, 36.11]] },
      "properties": {
        "id": "11111111-1111-4111-8111-111111111401",
        "created_at": "2025-03-01T12:00:00Z",
        "updated_at": "2025-03-01T12:00:00Z",
        "source": { "app": "Legacy Notebook", "app_version": "0", "record_id": "label-1" },
        "visibility": "private",
        "category": "annotation",
        "style": { "label": "Old homestead" }
      }
    }
  ]
}
