{
  "type": "FeatureCollection",
  "features": [
    {
      "type": "Feature",
      "id": "00000000-0000-4000-8000-00000000000a",
      "geometry": {
        "type": "Polygon",
        "coordinates": [
          [
            [
              -86.8,
              36.1
            ],
            [
              -86.78,
              36.1
            ],
            [
              -86.78,
              36.12
            ],
            [
              -86.8,
              36.12
            ],
            [
              -86.8,
              36.1
            ]
          ]
        ]
      },
      "properties": {
        "id": "00000000-0000-4000-8000-00000000000a",
        "created_at": "2025-08-15T20:00:00-06:00",
        "updated_at": "2025-08-15T20:00:00-06:00",
        "source": {
          "app": "OHD Examples",
          "app_version": "1.0.0",
          "record_id": "rec-10"
        },
        "visibility": "private",
        "name": "Back 80 boundary",
        "category": "boundary",
        "color": "#f97316",
        "area_m2": 323749,
        "property_id": "00000000-0000-4000-8000-000000000001"
      }
    },
    {
      "type": "Feature",
      "id": "00000000-0000-4000-8000-00000000000b",
      "geometry": {
        "type": "Polygon",
        "coordinates": [
          [
            [
              -86.792,
              36.108
            ],
            [
              -86.788,
              36.108
            ],
            [
              -86.788,
              36.111
            ],
            [
              -86.792,
              36.111
            ],
            [
              -86.792,
              36.108
            ]
          ]
        ]
      },
      "properties": {
        "id": "00000000-0000-4000-8000-00000000000b",
        "created_at": "2025-08-20T20:00:00-06:00",
        "updated_at": "2025-08-20T20:00:00-06:00",
        "source": {
          "app": "OHD Examples",
          "app_version": "1.0.0",
          "record_id": "rec-11"
        },
        "visibility": "private",
        "name": "Clover plot",
        "category": "food_plot",
        "color": "#22c55e",
        "area_m2": 12000,
        "property_id": "00000000-0000-4000-8000-000000000001"
      }
    }
  ]
}
